NORAD_CAT_ID,OBJECT_NAME,OBJECT_TYPE,EPOCH,MEAN_MOTION,ECCENTRICITY,INCLINATION,RA_OF_ASC_NODE,ARG_OF_PERICENTER,MEAN_ANOMALY,BSTAR,MEAN_MOTION_DOT,MEAN_MOTION_DDOT,TLE_LINE0,TLE_LINE1,TLE_LINE2,SEMIMAJOR_AXIS,PERIOD,APOGEE,PERIGEE,DECAYED
52987.0,STARLINK-4259,PAYLOAD,2023-04-14 12:17:54,15.08838819,0.0001407,53.2169,183.4381,101.2097,258.9053,-1.9745e-05,-6.02e-06,0.0,0 STARLINK-4259,1 52987U 22076B   23104.51243482 -.00000602  00000-0 -19745-4 0  9997,2 52987  53.2169 183.4381 0001407 101.2097 258.9053 15.08838819 42659,6917.884,95.438,540.722,538.776,0.0
52987.0,STARLINK-4259,PAYLOAD,2023-04-15 12:08:41,15.08839582,0.0001322,53.2173,178.9822,100.4428,259.6713,-2.7538e-05,-7.26e-06,0.0,0 STARLINK-4259,1 52987U 22076B   23105.50603681 -.00000726  00000-0 -27538-4 0  9994,2 52987  53.2173 178.9822 0001322 100.4428 259.6713 15.08839582 42804,6917.882,95.438,540.661,538.832,0.0
52987.0,STARLINK-4259,PAYLOAD,2023-04-15 21:41:00,15.08837965,0.0001232,53.2162,177.1927,69.0154,291.097,6.111e-05,6.85e-06,0.0,0 STARLINK-4259,1 52987U 22076B   23105.90347977  .00000685  00000-0  61110-4 0  9997,2 52987  53.2162 177.1927 0001232  69.0154 291.0970 15.08837965 42869,6917.887,95.438,540.604,538.899,0.0
52987.0,STARLINK-4259,PAYLOAD,2023-04-16 13:34:51,15.08843087,0.0001466,53.2175,174.219,79.4411,280.6746,0.00012577,1.714e-05,0.0,0 STARLINK-4259,1 52987U 22076B   23106.56587872  .00001714  00000-0  12577-3 0  9996,2 52987  53.2175 174.2190 0001466  79.4411 280.6746 15.08843087 42961,6917.871,95.437,540.75,538.722,0.0
52987.0,STARLINK-4259,PAYLOAD,2023-04-16 21:31:47,15.08823937,1.05e-05,53.2172,172.734,73.4074,286.693,-0.00017874,-3.129e-05,0.0,0 STARLINK-4259,1 52987U 22076B   23106.89708302 -.00003129  00000-0 -17874-3 0  9994,2 52987  53.2172 172.7340 0000105  73.4074 286.6930 15.08823937 43016,6917.929,95.439,539.867,539.722,0.0
52987.0,STARLINK-4259,PAYLOAD,2023-04-17 03:53:21,15.08823201,4.28e-05,53.2186,171.5417,50.3734,309.7296,4.3298e-06,-2.19e-06,0.0,0 STARLINK-4259,1 52987U 22076B   23107.16205250 -.00000219  00000-0  43298-5 0  9996,2 52987  53.2186 171.5417 0000428  50.3734 309.7296 15.08823201 43520,6917.932,95.439,540.093,539.501,0.0
52987.0,STARLINK-4259,PAYLOAD,2023-04-17 13:25:37,15.0886836,0.0001256,53.2177,169.7569,67.503,292.6095,0.0002299,3.376e-05,0.0,0 STARLINK-4259,1 52987U 22076B   23107.55945792  .00003376  00000-0  22990-3 0  9991,2 52987  53.2177 169.7569 0001256  67.5030 292.6095 15.08868360 43584,6917.794,95.436,540.528,538.79,0.0
52987.0,STARLINK-4259,PAYLOAD,2023-04-17 21:22:35,15.08826064,4.01e-05,53.2186,168.2704,56.9233,303.1798,-0.00012453,-2.268e-05,0.0,0 STARLINK-4259,1 52987U 22076B   23107.89068689 -.00002268  00000-0 -12453-3 0  9993,2 52987  53.2186 168.2704 0000401  56.9233 303.1798 15.08826064 43164,6917.923,95.438,540.065,539.511,0.0
52987.0,STARLINK-4259,PAYLOAD,2023-04-18 10:05:40,15.08838417,0.0001147,53.2159,165.8934,55.4713,304.6387,-0.00010115,-1.897e-05,0.0,0 STARLINK-4259,1 52987U 22076B   23108.42060590 -.00001897  00000-0 -10115-3 0  9996,2 52987  53.2159 165.8934 0001147  55.4713 304.6387 15.08838417 43241,6917.885,95.438,540.544,538.957,0.0
52987.0,STARLINK-4259,PAYLOAD,2023-04-18 13:16:26,15.08838121,0.0001269,53.2159,165.297,73.5651,286.5481,-6.2664e-05,-1.285e-05,0.0,0 STARLINK-4259,1 52987U 22076B   23108.55307961 -.00001285  00000-0 -62664-4 0  9994,2 52987  53.2159 165.2970 0001269  73.5651 286.5481 15.08838121 43731,6917.886,95.438,540.629,538.873,0.0
52987.0,STARLINK-4259,PAYLOAD,2023-04-18 16:27:12,15.08836739,0.0001293,53.2158,164.7017,79.8638,280.25,-6.8065e-05,-1.371e-05,0.0,0 STARLINK-4259,1 52987U 22076B   23108.68556075 -.00001371  00000-0 -68065-4 0  9997,2 52987  53.2158 164.7017 0001293  79.8638 280.2500 15.08836739 43283,6917.89,95.438,540.65,538.861,0.0
52987.0,STARLINK-4259,PAYLOAD,2023-04-19 08:21:04,15.08833096,9.84e-05,53.2154,161.7285,77.9321,282.1781,0.00020042,2.903e-05,0.0,0 STARLINK-4259,1 52987U 22076B   23109.34796588  .00002903  00000-0  20042-3 0  9998,2 52987  53.2154 161.7285 0000984  77.9321 282.1781 15.08833096 43383,6917.901,95.438,540.447,539.086,0.0
52987.0,STARLINK-4259,PAYLOAD,2023-04-19 14:42:35,15.08851157,0.0001189,53.2158,160.5372,92.6591,267.4537,8.3627e-05,1.044e-05,0.0,0 STARLINK-4259,1 52987U 22076B   23109.61291593  .00001044  00000-0  83627-4 0  9998,2 52987  53.2158 160.5372 0001189  92.6591 267.4537 15.08851157 43420,6917.846,95.437,540.534,538.889,0.0
52987.0,STARLINK-4259,PAYLOAD,2023-04-20 05:01:05,15.08833784,0.0001134,53.2155,157.8625,92.0516,268.0606,0.00028841,4.304e-05,0.0,0 STARLINK-4259,1 52987U 22076B   23110.20908771  .00004304  00000-0  28841-3 0  9996,2 52987  53.2155 157.8625 0001134  92.0516 268.0606 15.08833784 43989,6917.899,95.438,540.549,538.98,0.0
52987.0,STARLINK-4259,PAYLOAD,2023-04-20 12:58:00,15.08844003,0.0001325,53.2148,156.3745,95.7005,264.4138,0.00028657,4.276e-05,0.0,0 STARLINK-4259,1 52987U 22076B   23110.54028383  .00004276  00000-0  28657-3 0  9998,2 52987  53.2148 156.3745 0001325  95.7005 264.4138 15.08844003 43563,6917.868,95.437,540.65,538.817,0.0
52987.0,STARLINK-4259,PAYLOAD,2023-04-21 03:16:29,15.08833403,0.0001194,53.2156,153.699,98.2119,261.9009,4.5825e-05,4.41e-06,0.0,0 STARLINK-4259,1 52987U 22076B   23111.13644920  .00000441  00000-0  45825-4 0  9992,2 52987  53.2156 153.6990 0001194  98.2119 261.9009 15.08833403 44126,6917.901,95.438,540.592,538.94,0.0
52987.0,STARLINK-4259,PAYLOAD,2023-04-21 06:27:15,15.088326,0.0001429,53.2162,153.1039,101.2386,258.8767,-1.1366e-05,-4.69e-06,0.0,0 STARLINK-4259,1 52987U 22076B   23111.26893150 -.00000469  00000-0 -11366-4 0  9992,2 52987  53.2162 153.1039 0001429 101.2386 258.8767 15.08832600 43677,6917.903,95.438,540.757,538.779,0.0
52987.0,STARLINK-4259,PAYLOAD,2023-04-21 19:10:20,15.0883828,0.0001154,53.2149,150.726,97.9507,262.1616,9.9361e-05,1.294e-05,0.0,0 STARLINK-4259,1 52987U 22076B   23111.79884949  .00001294  00000-0  99361-4 0  9992,2 52987  53.2149 150.7260 0001154  97.9507 262.1616 15.08838280 43752,6917.886,95.438,540.549,538.952,0.0
52987.0,STARLINK-4259,PAYLOAD,2023-04-22 12:39:34,15.08848675,0.0001204,53.2151,147.4542,96.3169,263.796,0.00028865,4.31e-05,0.0,0 STARLINK-4259,1 52987U 22076B   23112.52748621  .00004310  00000-0  28865-3 0  9992,2 52987  53.2151 147.4542 0001204  96.3169 263.7960 15.08848675 44337,6917.854,95.437,540.552,538.886,0.0
52987.0,STARLINK-4259,PAYLOAD,2023-04-22 19:01:07,15.08837281,0.0001142,53.2147,146.266,109.3535,250.7581,3.6065e-05,2.86e-06,0.0,0 STARLINK-4259,1 52987U 22076B   23112.79244870  .00000286  00000-0  36065-4 0  9998,2 52987  53.2147 146.2660 0001142 109.3535 250.7581 15.08837281 43901,6917.889,95.438,540.544,538.964,0.0
52987.0,STARLINK-4259,PAYLOAD,2023-04-23 12:30:22,15.0884063,0.0001155,53.2147,142.9945,101.9324,258.1797,0.00013867,1.92e-05,0.0,0 STARLINK-4259,1 52987U 22076B   23113.52109152  .00001920  00000-0  13867-3 0  9993,2 52987  53.2147 142.9945 0001155 101.9324 258.1797 15.08840630 44014,6917.878,95.438,540.542,538.944,0.0
52987.0,STARLINK-4259,PAYLOAD,2023-04-23 18:51:54,15.08846335,0.0001296,53.2149,141.8054,97.848,262.2659,0.00025842,3.828e-05,0.0,0 STARLINK-4259,1 52987U 22076B   23113.78605037  .00003828  00000-0  25842-3 0  9999,2 52987  53.2149 141.8054 0001296  97.8480 262.2659 15.08846335 44052,6917.861,95.437,540.623,538.829,0.0
52987.0,STARLINK-4259,PAYLOAD,2023-04-24 10:45:44,15.08894914,0.0001288,53.2148,138.8313,98.1584,261.9554,0.0014504,0.00022905,0.0,0 STARLINK-4259,1 52987U 22076B   23114.44843586  .00022905  00000-0  14504-2 0  9995,2 52987  53.2148 138.8313 0001288  98.1584 261.9554 15.08894914 44624,6917.713,95.434,540.469,538.687,0.0
52987.0,STARLINK-4259,PAYLOAD,2023-04-25 10:36:33,15.08828985,0.0001225,53.2149,134.3704,86.9594,273.1539,2.5581e-05,1.19e-06,0.0,0 STARLINK-4259,1 52987U 22076B   23115.44205237  .00000119  00000-0  25581-4 0  9993,2 52987  53.2149 134.3704 0001225  86.9594 273.1539 15.08828985 44305,6917.914,95.438,540.627,538.932,0.0
52987.0,STARLINK-4259,PAYLOAD,2023-04-26 12:02:44,15.08835838,0.0001258,53.2152,129.6128,81.9459,278.1676,0.00050497,7.757e-05,0.0,0 STARLINK-4259,1 52987U 22076B   23116.50190190  .00007757  00000-0  50497-3 0  9990,2 52987  53.2152 129.6128 0001258  81.9459 278.1676 15.08835838 44466,6917.893,95.438,540.628,538.888,0.0
52987.0,STARLINK-4259,PAYLOAD,2023-04-26 18:24:16,15.08839963,0.0001295,53.2155,128.4232,81.921,278.1929,0.0005254,8.084e-05,0.0,0 STARLINK-4259,1 52987U 22076B   23116.76686216  .00008084  00000-0  52540-3 0  9992,2 52987  53.2155 128.4232 0001295  81.9210 278.1929 15.08839963 44507,6917.881,95.438,540.641,538.85,0.0
52987.0,STARLINK-4259,PAYLOAD,2023-04-27 10:18:07,15.08852735,0.0001322,53.2158,125.4498,78.7292,281.3848,0.00057696,8.909e-05,0.0,0 STARLINK-4259,1 52987U 22076B   23117.42925871  .00008909  00000-0  57696-3 0  9992,2 52987  53.2158 125.4498 0001322  78.7292 281.3848 15.08852735 44605,6917.841,95.437,540.621,538.792,0.0
52987.0,STARLINK-4259,PAYLOAD,2023-04-28 06:58:08,15.08852303,0.0001308,53.2159,121.5832,81.0547,279.0593,0.00028082,4.186e-05,0.0,0 STARLINK-4259,1 52987U 22076B   23118.29037425  .00004186  00000-0  28082-3 0  9997,2 52987  53.2159 121.5832 0001308  81.0547 279.0593 15.08852303 45208,6917.843,95.437,540.613,538.803,0.0
52987.0,STARLINK-4259,PAYLOAD,2023-04-29 03:38:08,15.08848516,0.0001427,53.2163,117.7185,81.5551,278.5603,0.0001459,2.035e-05,0.0,0 STARLINK-4259,1 52987U 22076B   23119.15149249  .00002035  00000-0  14590-3 0  9991,2 52987  53.2163 117.7185 0001427  81.5551 278.5603 15.08848516 45334,6917.854,95.437,540.707,538.732,0.0
52987.0,STARLINK-4259,PAYLOAD,2023-04-29 06:48:55,15.08841733,0.0001309,53.2167,117.1262,86.9143,273.1999,-5.0944e-05,-1.099e-05,0.0,0 STARLINK-4259,1 52987U 22076B   23119.28397309 -.00001099  00000-0 -50944-4 0  9992,2 52987  53.2167 117.1262 0001309  86.9143 273.1999 15.08841733 44885,6917.875,95.437,540.646,538.835,0.0
